start=new Date('2021-09-17T00:00:00.000Z').valueOf();
sats=[{"ARG_OF_PERICENTER":"283.1930","OBJECT_TYPE":"PAYLOAD","OBJECT_NAME":"STARLINK-2259","RA_OF_ASC_NODE":"46.4955","APOAPSIS":"345.053","SITE":"AFETR","REF_FRAME":"TEME","TLE_LINE1":"1 48007U 21024AG  21260.00002315 -.00015363  00000-0 -89968-4 0  9994","MEAN_MOTION_DDOT":"0.0000000000000","OBJECT_ID":"2021-024AG","PERIOD":"91.331","MEAN_ELEMENT_THEORY":"SGP4","RCS_SIZE":"LARGE","TLE_LINE2":"2 48007  53.0460  46.4955 0007727 283.1930 313.7586 15.76678126  3679","LAUNCH_DATE":"2021-03-24","CLASSIFICATION_TYPE":"U","GP_ID":"184851539","COUNTRY_CODE":"US","MEAN_MOTION":"15.76678126","SEMIMAJOR_AXIS":"6717.997","EPOCH":"2021-09-17T00:00:02.000160","ECCENTRICITY":"0.00077270","ELEMENT_SET_NO":"999","REV_AT_EPOCH":"367","DECAY_DATE":null,"EPHEMERIS_TYPE":"0","INCLINATION":"53.0460","MEAN_MOTION_DOT":"-0.00015363","NORAD_CAT_ID":"48007","TIME_SYSTEM":"UTC","PERIAPSIS":"334.671","MEAN_ANOMALY":"313.7586","CENTER_NAME":"EARTH","FILE":"3117438","BSTAR":"-0.00008996800000"},{"GP_ID":"184852288","COUNTRY_CODE":"US","MEAN_MOTION":"15.73202882","SEMIMAJOR_AXIS":"6727.887","RA_OF_ASC_NODE":"46.6052","OBJECT_NAME":"STARLINK-2271","OBJECT_TYPE":"PAYLOAD","ARG_OF_PERICENTER":"2.8221","TLE_LINE1":"1 48008U 21024AH  21260.00002315  .00003956  00000-0  32605-4 0  9994","REF_FRAME":"TEME","SITE":"AFETR","APOAPSIS":"352.848","MEAN_ELEMENT_THEORY":"SGP4","RCS_SIZE":"LARGE","PERIOD":"91.533","OBJECT_ID":"2021-024AH","MEAN_MOTION_DDOT":"0.0000000000000","CLASSIFICATION_TYPE":"U","TLE_LINE2":"2 48008  53.0456  46.6052 0004602   2.8221 177.4948 15.73202882  3679","LAUNCH_DATE":"2021-03-24","MEAN_MOTION_DOT":"0.00003956","DECAY_DATE":null,"INCLINATION":"53.0456","EPHEMERIS_TYPE":"0","REV_AT_EPOCH":"367","TIME_SYSTEM":"UTC","NORAD_CAT_ID":"48008","MEAN_ANOMALY":"177.4948","PERIAPSIS":"346.656","BSTAR":"0.00003260500000","FILE":"3117438","CENTER_NAME":"EARTH","ECCENTRICITY":"0.00046020","EPOCH":"2021-09-17T00:00:02.000160","ELEMENT_SET_NO":"999"},{"RA_OF_ASC_NODE":"95.0140","OBJECT_TYPE":"PAYLOAD","ARG_OF_PERICENTER":"79.4619","OBJECT_NAME":"STARLINK-2153","TLE_LINE1":"1 48009U 21024AJ  21260.00002315  .00045458  00000-0  30530-2 0  9991","APOAPSIS":"548.776","SITE":"AFETR","REF_FRAME":"TEME","RCS_SIZE":"LARGE","MEAN_ELEMENT_THEORY":"SGP4","OBJECT_ID":"2021-024AJ","MEAN_MOTION_DDOT":"0.0000000000000","PERIOD":"95.594","CLASSIFICATION_TYPE":"U","LAUNCH_DATE":"2021-03-24","TLE_LINE2":"2 48009  53.0536  95.0140 0002147  79.4619 160.3812 15.06375480  3579","GP_ID":"184853040","MEAN_MOTION":"15.06375480","COUNTRY_CODE":"US","SEMIMAJOR_AXIS":"6925.424","ECCENTRICITY":"0.00021470","EPOCH":"2021-09-17T00:00:02.000160","ELEMENT_SET_NO":"999","MEAN_MOTION_DOT":"0.00045458","REV_AT_EPOCH":"357","DECAY_DATE":null,"EPHEMERIS_TYPE":"0","INCLINATION":"53.0536","TIME_SYSTEM":"UTC","NORAD_CAT_ID":"48009","PERIAPSIS":"545.802","MEAN_ANOMALY":"160.3812","BSTAR":"0.00305300000000","CENTER_NAME":"EARTH","FILE":"3117438"},{"MEAN_MOTION_DDOT":"0.0000000000000","OBJECT_ID":"2021-024AK","PERIOD":"95.593","MEAN_ELEMENT_THEORY":"SGP4","RCS_SIZE":"LARGE","LAUNCH_DATE":"2021-03-24","TLE_LINE2":"2 48010  53.0511 115.0581 0001741  72.7918 111.9625 15.06383784  3573","CLASSIFICATION_TYPE":"U","OBJECT_NAME":"STARLINK-2226","OBJECT_TYPE":"PAYLOAD","ARG_OF_PERICENTER":"72.7918","RA_OF_ASC_NODE":"115.0581","APOAPSIS":"548.469","REF_FRAME":"TEME","SITE":"AFETR","TLE_LINE1":"1 48010U 21024AK  21260.00002315  .00031653  00000-0  21353-2 0  9998","SEMIMAJOR_AXIS":"6925.398","GP_ID":"184852786","MEAN_MOTION":"15.06383784","COUNTRY_CODE":"US","ECCENTRICITY":"0.00017410","EPOCH":"2021-09-17T00:00:02.000160","ELEMENT_SET_NO":"999","PERIAPSIS":"546.058","MEAN_ANOMALY":"111.9625","CENTER_NAME":"EARTH","FILE":"3117438","BSTAR":"0.00213530000000","REV_AT_EPOCH":"357","DECAY_DATE":null,"EPHEMERIS_TYPE":"0","INCLINATION":"53.0511","MEAN_MOTION_DOT":"0.00031653","NORAD_CAT_ID":"48010","TIME_SYSTEM":"UTC"},{"PERIAPSIS":"545.844","MEAN_ANOMALY":"331.5509","BSTAR":"0.00267740000000","CENTER_NAME":"EARTH","FILE":"3117438","MEAN_MOTION_DOT":"0.00039795","REV_AT_EPOCH":"357","EPHEMERIS_TYPE":"0","DECAY_DATE":null,"INCLINATION":"53.0531","TIME_SYSTEM":"UTC","NORAD_CAT_ID":"48011","ECCENTRICITY":"0.00020990","EPOCH":"2021-09-17T00:00:02.000160","ELEMENT_SET_NO":"999","SEMIMAJOR_AXIS":"6925.433","GP_ID":"184852039","COUNTRY_CODE":"US","MEAN_MOTION":"15.06372440","RCS_SIZE":"LARGE","MEAN_ELEMENT_THEORY":"SGP4","MEAN_MOTION_DDOT":"0.0000000000000","OBJECT_ID":"2021-024AL","PERIOD":"95.594","CLASSIFICATION_TYPE":"U","LAUNCH_DATE":"2021-03-24","TLE_LINE2":"2 48011  53.0531  95.0112 0002099  88.3265 331.5509 15.06372440  3576","RA_OF_ASC_NODE":"95.0112","OBJECT_NAME":"STARLINK-2272","OBJECT_TYPE":"PAYLOAD","ARG_OF_PERICENTER":"88.3265","TLE_LINE1":"1 48011U 21024AL  21260.00002315  .00039795  00000-0  26774-2 0  9996","APOAPSIS":"548.752","SITE":"AFETR","REF_FRAME":"TEME"},{"RA_OF_ASC_NODE":"70.0118","OBJECT_TYPE":"PAYLOAD","ARG_OF_PERICENTER":"103.6123","OBJECT_NAME":"STARLINK-2216","TLE_LINE1":"1 48012U 21024AM  21260.00002315  .00011984  00000-0  82225-3 0  9991","APOAPSIS":"548.239","REF_FRAME":"TEME","SITE":"AFETR","RCS_SIZE":"LARGE","MEAN_ELEMENT_THEORY":"SGP4","OBJECT_ID":"2021-024AM","MEAN_MOTION_DDOT":"0.0000000000000","PERIOD":"95.593","CLASSIFICATION_TYPE":"U","LAUNCH_DATE":"2021-03-24","TLE_LINE2":"2 48012  53.0523  70.0118 0001445 103.6123 288.6175 15.06392049  3663","GP_ID":"184851789","MEAN_MOTION":"15.06392049","COUNTRY_CODE":"US","SEMIMAJOR_AXIS":"6925.373","ECCENTRICITY":"0.00014450","EPOCH":"2021-09-17T00:00:02.000160","ELEMENT_SET_NO":"999","MEAN_MOTION_DOT":"0.00011984","REV_AT_EPOCH":"366","INCLINATION":"53.0523","DECAY_DATE":null,"EPHEMERIS_TYPE":"0","TIME_SYSTEM":"UTC","NORAD_CAT_ID":"48012","PERIAPSIS":"546.237","MEAN_ANOMALY":"288.6175","BSTAR":"0.00082225000000","CENTER_NAME":"EARTH","FILE":"3117438"},{"EPOCH":"2021-09-17T00:00:02.000160","ECCENTRICITY":"0.00018720","ELEMENT_SET_NO":"999","DECAY_DATE":null,"EPHEMERIS_TYPE":"0","INCLINATION":"53.0531","REV_AT_EPOCH":"357","MEAN_MOTION_DOT":"0.00029576","NORAD_CAT_ID":"48013","TIME_SYSTEM":"UTC","MEAN_ANOMALY":"84.2533","PERIAPSIS":"558.457","FILE":"3117438","CENTER_NAME":"EARTH","BSTAR":"0.00222550000000","OBJECT_TYPE":"PAYLOAD","OBJECT_NAME":"STARLINK-2243","ARG_OF_PERICENTER":"94.5233","RA_OF_ASC_NODE":"78.8991","REF_FRAME":"TEME","SITE":"AFETR","APOAPSIS":"561.055","TLE_LINE1":"1 48013U 21024AN  21260.00002315  .00029576  00000-0  22255-2 0  9994","PERIOD":"95.852","MEAN_MOTION_DDOT":"0.0000000000000","OBJECT_ID":"2021-024AN","RCS_SIZE":"LARGE","MEAN_ELEMENT_THEORY":"SGP4","TLE_LINE2":"2 48013  53.0531  78.8991 0001872  94.5233  84.2533 15.02316845  3576","LAUNCH_DATE":"2021-03-24","CLASSIFICATION_TYPE":"U","GP_ID":"184852541","MEAN_MOTION":"15.02316845","COUNTRY_CODE":"US","SEMIMAJOR_AXIS":"6937.891"},{"SEMIMAJOR_AXIS":"6787.063","COUNTRY_CODE":"US","MEAN_MOTION":"15.52672644","GP_ID":"184853286","LAUNCH_DATE":"2021-03-24","TLE_LINE2":"2 48014  53.0447  47.2696 0001457  53.7937 168.9625 15.52672644  3672","CLASSIFICATION_TYPE":"U","PERIOD":"92.743","MEAN_MOTION_DDOT":"0.0000000000000","OBJECT_ID":"2021-024AP","RCS_SIZE":"LARGE","MEAN_ELEMENT_THEORY":"SGP4","SITE":"AFETR","REF_FRAME":"TEME","APOAPSIS":"409.917","TLE_LINE1":"1 48014U 21024AP  21260.00002315 -.01089277  00000-0 -19169-1 0  9991","OBJECT_TYPE":"PAYLOAD","OBJECT_NAME":"STARLINK-2283","ARG_OF_PERICENTER":"53.7937","RA_OF_ASC_NODE":"47.2696","FILE":"3117438","CENTER_NAME":"EARTH","BSTAR":"-0.01916900000000","MEAN_ANOMALY":"168.9625","PERIAPSIS":"407.940","NORAD_CAT_ID":"48014","TIME_SYSTEM":"UTC","INCLINATION":"53.0447","DECAY_DATE":null,"EPHEMERIS_TYPE":"0","REV_AT_EPOCH":"367","MEAN_MOTION_DOT":"-0.01089277","ELEMENT_SET_NO":"999","ECCENTRICITY":"0.00014570","EPOCH":"2021-09-17T00:00:02.000160"},{"ECCENTRICITY":"0.00087090","EPOCH":"2021-09-17T00:00:02.000160","ELEMENT_SET_NO":"999","MEAN_MOTION_DOT":"-0.00015212","EPHEMERIS_TYPE":"0","DECAY_DATE":null,"INCLINATION":"53.0457","REV_AT_EPOCH":"367","TIME_SYSTEM":"UTC","NORAD_CAT_ID":"48015","MEAN_ANOMALY":"318.5815","PERIAPSIS":"333.948","BSTAR":"-0.00008888900000","FILE":"3117438","CENTER_NAME":"EARTH","RA_OF_ASC_NODE":"46.4898","OBJECT_TYPE":"PAYLOAD","OBJECT_NAME":"STARLINK-2281","ARG_OF_PERICENTER":"278.9712","TLE_LINE1":"1 48015U 21024AQ  21260.00002315 -.00015212  00000-0 -88889-4 0  9997","REF_FRAME":"TEME","SITE":"AFETR","APOAPSIS":"345.649","RCS_SIZE":"LARGE","MEAN_ELEMENT_THEORY":"SGP4","PERIOD":"91.330","MEAN_MOTION_DDOT":"0.0000000000000","OBJECT_ID":"2021-024AQ","CLASSIFICATION_TYPE":"U","TLE_LINE2":"2 48015  53.0457  46.4898 0008709 278.9712 318.5815 15.76700400  3670","LAUNCH_DATE":"2021-03-24","GP_ID":"184851540","COUNTRY_CODE":"US","MEAN_MOTION":"15.76700400","SEMIMAJOR_AXIS":"6717.934"},{"ECCENTRICITY":"0.00044760","EPOCH":"2021-09-17T00:00:02.000160","ELEMENT_SET_NO":"999","MEAN_MOTION_DOT":"-0.00015030","INCLINATION":"53.0457","DECAY_DATE":null,"EPHEMERIS_TYPE":"0","REV_AT_EPOCH":"367","TIME_SYSTEM":"UTC","NORAD_CAT_ID":"48016","MEAN_ANOMALY":"186.1122","PERIAPSIS":"346.715","BSTAR":"-0.00010268000000","FILE":"3117438","CENTER_NAME":"EARTH","RA_OF_ASC_NODE":"46.5982","ARG_OF_PERICENTER":"359.3220","OBJECT_TYPE":"PAYLOAD","OBJECT_NAME":"STARLINK-2284","TLE_LINE1":"1 48016U 21024AR  21260.00002315 -.00015030  00000-0 -10268-3 0  9991","REF_FRAME":"TEME","SITE":"AFETR","APOAPSIS":"352.737","RCS_SIZE":"LARGE","MEAN_ELEMENT_THEORY":"SGP4","PERIOD":"91.532","MEAN_MOTION_DDOT":"0.0000000000000","OBJECT_ID":"2021-024AR","CLASSIFICATION_TYPE":"U","TLE_LINE2":"2 48016  53.0457  46.5982 0004476 359.3220 186.1122 15.73212014  3677","LAUNCH_DATE":"2021-03-24","GP_ID":"184852289","COUNTRY_CODE":"US","MEAN_MOTION":"15.73212014","SEMIMAJOR_AXIS":"6727.861"}];
